NORAD_CAT_ID,OBJECT_NAME,OBJECT_TYPE,EPOCH,MEAN_MOTION,ECCENTRICITY,INCLINATION,RA_OF_ASC_NODE,ARG_OF_PERICENTER,MEAN_ANOMALY,BSTAR,MEAN_MOTION_DOT,MEAN_MOTION_DDOT,TLE_LINE0,TLE_LINE1,TLE_LINE2,SEMIMAJOR_AXIS,PERIOD,APOGEE,PERIGEE,DECAYED
51146.0,STARLINK-3354,PAYLOAD,2023-10-06 02:01:01,15.0884012,0.0002004,53.2156,314.7679,87.677,272.4452,-6.6e-05,-1.338e-05,0.0,0 STARLINK-3354,1 51146U 22005AU  23279.08404703 -.00001338  00000-0 -66000-4 0  9998,2 51146  53.2156 314.7679 0002004  87.6770 272.4452 15.08840120 96155,6917.88,95.438,541.131,538.359,0.0
51146.0,STARLINK-3354,PAYLOAD,2023-10-06 09:57:57,15.0883947,0.0001625,53.2172,313.2826,92.6151,267.5027,-7.2424e-06,-4.03e-06,0.0,0 STARLINK-3354,1 51146U 22005AU  23279.41524756 -.00000403  00000-0 -72424-5 0  9996,2 51146  53.2172 313.2826 0001625  92.6151 267.5027 15.08839470 95088,6917.882,95.438,540.871,538.623,0.0
51146.0,STARLINK-3354,PAYLOAD,2023-10-07 09:48:44,15.08843974,0.0001756,53.2171,308.8223,92.927,267.1924,0.0001621,2.293e-05,0.0,0 STARLINK-3354,1 51146U 22005AU  23280.40884962  .00002293  00000-0  16210-3 0  9991,2 51146  53.2171 308.8223 0001756  92.9270 267.1924 15.08843974 96355,6917.868,95.437,540.948,538.518,0.0
51146.0,STARLINK-3354,PAYLOAD,2023-10-07 19:21:03,15.0884496,0.0001717,53.2171,307.0383,90.0131,270.1058,0.00016273,2.303e-05,0.0,0 STARLINK-3354,1 51146U 22005AU  23280.80628979  .00002303  00000-0  16273-3 0  9990,2 51146  53.2171 307.0383 0001717  90.0131 270.1058 15.08844960 95295,6917.865,95.437,540.918,538.542,0.0
51146.0,STARLINK-3354,PAYLOAD,2023-10-08 12:50:17,15.08857849,0.0001727,53.2167,303.7667,94.6595,265.4594,0.00040495,6.166e-05,0.0,0 STARLINK-3354,1 51146U 22005AU  23281.53492370  .00006166  00000-0  40495-3 0  9999,2 51146  53.2167 303.7667 0001727  94.6595 265.4594 15.08857849 95408,6917.826,95.436,540.886,538.496,0.0
51146.0,STARLINK-3354,PAYLOAD,2023-10-09 01:33:23,15.08839313,0.0001677,53.2158,301.3869,96.9206,263.1977,2.3198e-05,8.1e-07,0.0,0 STARLINK-3354,1 51146U 22005AU  23282.06485151  .00000081  00000-0  23198-4 0  9999,2 51146  53.2158 301.3869 0001677  96.9206 263.1977 15.08839313 96603,6917.882,95.438,540.908,538.587,0.0
51146.0,STARLINK-3354,PAYLOAD,2023-10-09 07:54:55,15.0884823,0.0001558,53.2162,300.1979,93.5454,266.5716,0.00020998,3.056e-05,0.0,0 STARLINK-3354,1 51146U 22005AU  23282.32980832  .00003056  00000-0  20998-3 0  9993,2 51146  53.2162 300.1979 0001558  93.5454 266.5716 15.08848230 95529,6917.855,95.437,540.798,538.642,0.0
51146.0,STARLINK-3354,PAYLOAD,2023-10-10 01:24:10,15.08843353,0.000152,53.2157,296.9263,93.9824,266.1342,0.00011997,1.622e-05,0.0,0 STARLINK-3354,1 51146U 22005AU  23283.05844974  .00001622  00000-0  11997-3 0  9996,2 51146  53.2157 296.9263 0001520  93.9824 266.1342 15.08843353 96753,6917.87,95.437,540.787,538.684,0.0
51146.0,STARLINK-3354,PAYLOAD,2023-10-10 12:31:51,15.08854917,0.0001612,53.2175,294.8442,98.7696,261.3479,0.00028872,4.312e-05,0.0,0 STARLINK-3354,1 51146U 22005AU  23283.52212243  .00004312  00000-0  28872-3 0  9995,2 51146  53.2175 294.8442 0001612  98.7696 261.3479 15.08854917 95701,6917.835,95.437,540.815,538.585,0.0
51146.0,STARLINK-3354,PAYLOAD,2023-10-11 01:14:57,15.08831887,0.0001865,53.2175,292.4662,91.4053,268.7153,-1.6831e-05,-5.56e-06,0.0,0 STARLINK-3354,1 51146U 22005AU  23284.05205504 -.00000556  00000-0 -16831-4 0  9997,2 51146  53.2175 292.4662 0001865  91.4053 268.7153 15.08831887 96900,6917.905,95.438,541.06,538.48,0.0
51146.0,STARLINK-3354,PAYLOAD,2023-10-11 10:47:16,15.08838067,0.0001625,53.2168,290.6844,93.6346,266.4832,7.3321e-05,8.79e-06,0.0,0 STARLINK-3354,1 51146U 22005AU  23284.44949394  .00000879  00000-0  73321-4 0  9995,2 51146  53.2168 290.6844 0001625  93.6346 266.4832 15.08838067 95845,6917.886,95.438,540.875,538.627,0.0
51146.0,STARLINK-3354,PAYLOAD,2023-10-12 04:16:31,15.08839839,0.0001542,53.2159,287.4114,98.3966,261.7201,0.00015385,2.161e-05,0.0,0 STARLINK-3354,1 51146U 22005AU  23285.17813692  .00002161  00000-0  15385-3 0  9998,2 51146  53.2159 287.4114 0001542  98.3966 261.7201 15.08839839 97070,6917.881,95.438,540.813,538.679,0.0
51146.0,STARLINK-3354,PAYLOAD,2023-10-12 09:02:40,15.08848557,0.0001544,53.2163,286.5206,98.7131,261.4036,0.00077633,0.00012092,0.0,0 STARLINK-3354,1 51146U 22005AU  23285.37685565  .00012092  00000-0  77633-3 0  9994,2 51146  53.2163 286.5206 0001544  98.7131 261.4036 15.08848557 95985,6917.854,95.437,540.787,538.651,0.0
51146.0,STARLINK-3354,PAYLOAD,2023-10-12 16:59:35,15.08850417,0.0001457,53.2157,285.0336,88.8217,271.2942,0.00055277,8.523e-05,0.0,0 STARLINK-3354,1 51146U 22005AU  23285.70805529  .00008523  00000-0  55277-3 0  9999,2 51146  53.2157 285.0336 0001457  88.8217 271.2942 15.08850417 96034,6917.849,95.437,540.721,538.706,0.0
51146.0,STARLINK-3354,PAYLOAD,2023-10-13 08:53:27,15.08846379,0.0001542,53.216,282.06,94.3124,265.8044,0.00023666,3.481e-05,0.0,0 STARLINK-3354,1 51146U 22005AU  23286.37045413  .00003481  00000-0  23666-3 0  9996,2 51146  53.2160 282.0600 0001542  94.3124 265.8044 15.08846379 97252,6917.861,95.437,540.793,538.659,0.0
51146.0,STARLINK-3354,PAYLOAD,2023-10-14 08:44:13,15.0885846,0.0001709,53.2167,277.5981,106.0788,254.0393,0.00032403,4.875e-05,0.0,0 STARLINK-3354,1 51146U 22005AU  23287.36404651  .00004875  00000-0  32403-3 0  9996,2 51146  53.2167 277.5981 0001709 106.0788 254.0393 15.08858460 96285,6917.824,95.436,540.871,538.507,0.0
51146.0,STARLINK-3354,PAYLOAD,2023-10-15 05:24:15,15.08819425,0.0001176,53.2155,273.7331,84.7194,275.3932,-0.00027487,-4.657e-05,0.0,0 STARLINK-3354,1 51146U 22005AU  23288.22518470 -.00004657  00000-0 -27487-3 0  9993,2 51146  53.2155 273.7331 0001176  84.7194 275.3932 15.08819425 97532,6917.943,95.439,540.622,538.995,0.0
51146.0,STARLINK-3354,PAYLOAD,2023-10-15 08:35:02,15.08827041,0.0001374,53.2156,273.1359,92.3207,267.7942,-8.2317e-05,-1.597e-05,0.0,0 STARLINK-3354,1 51146U 22005AU  23288.35766339 -.00001597  00000-0 -82317-4 0  9990,2 51146  53.2156 273.1359 0001374  92.3207 267.7942 15.08827041 96434,6917.92,95.438,540.736,538.834,0.0
51146.0,STARLINK-3354,PAYLOAD,2023-10-15 16:31:57,15.08835875,0.0001382,53.2165,271.6511,89.356,270.7591,0.00024191,3.564e-05,0.0,0 STARLINK-3354,1 51146U 22005AU  23288.68886331  .00003564  00000-0  24191-3 0  9990,2 51146  53.2165 271.6511 0001382  89.3560 270.7591 15.08835875 97602,6917.893,95.438,540.714,538.802,0.0
51146.0,STARLINK-3354,PAYLOAD,2023-10-16 05:15:02,15.08859867,0.0001325,53.2157,269.2713,87.5447,272.5697,0.0011978,0.00018837,0.0,0 STARLINK-3354,1 51146U 22005AU  23289.21878083  .00018837  00000-0  11978-2 0  9992,2 51146  53.2157 269.2713 0001325  87.5447 272.5697 15.08859867 97683,6917.82,95.436,540.601,538.768,0.0
51146.0,STARLINK-3354,PAYLOAD,2023-10-17 08:16:35,15.0886681,0.0001356,53.2166,264.2168,100.4245,259.69,0.0009972,0.0001563,0.0,0 STARLINK-3354,1 51146U 22005AU  23290.34485544  .00015630  00000-0  99720-3 0  9994,2 51146  53.2166 264.2168 0001356 100.4245 259.6900 15.08866810 97855,6917.798,95.436,540.601,538.725,0.0
51146.0,STARLINK-3354,PAYLOAD,2023-10-18 01:45:50,15.08836281,0.0001441,53.2175,260.945,101.9688,258.1466,0.0013441,0.00021166,0.0,0 STARLINK-3354,1 51146U 22005AU  23291.07350298  .00021166  00000-0  13441-2 0  9998,2 51146  53.2175 260.9450 0001441 101.9688 258.1466 15.08836281 96842,6917.892,95.438,540.754,538.76,0.0
51146.0,STARLINK-3354,PAYLOAD,2023-10-18 04:56:36,15.08837744,0.0001408,53.2177,260.3506,88.2542,271.8612,0.00096294,0.00015069,0.0,0 STARLINK-3354,1 51146U 22005AU  23291.20598278  .00015069  00000-0  96294-3 0  9998,2 51146  53.2177 260.3506 0001408  88.2542 271.8612 15.08837744 97985,6917.887,95.438,540.726,538.778,0.0
51146.0,STARLINK-3354,PAYLOAD,2023-10-18 20:50:28,15.08845997,0.0001346,53.2169,257.376,88.7895,271.3251,0.00058191,8.987e-05,0.0,0 STARLINK-3354,1 51146U 22005AU  23291.86838345  .00008987  00000-0  58191-3 0  9997,2 51146  53.2169 257.3760 0001346  88.7895 271.3251 15.08845997 98086,6917.862,95.437,540.658,538.796,0.0
51146.0,STARLINK-3354,PAYLOAD,2023-10-19 07:58:09,15.08864633,0.0001486,53.2175,255.2961,95.4329,264.6833,0.0010977,0.00017237,0.0,0 STARLINK-3354,1 51146U 22005AU  23292.33205777  .00017237  00000-0  10977-2 0  9994,2 51146  53.2175 255.2961 0001486  95.4329 264.6833 15.08864633 98152,6917.805,95.436,540.698,538.642,0.0
51146.0,STARLINK-3354,PAYLOAD,2023-10-19 22:16:38,15.08840964,0.0001202,53.217,252.6207,85.5239,274.589,0.00010978,1.46e-05,0.0,0 STARLINK-3354,1 51146U 22005AU  23292.92822202  .00001460  00000-0  10978-3 0  9990,2 51146  53.2170 252.6207 0001202  85.5239 274.5890 15.08840964 97127,6917.877,95.437,540.574,538.911,0.0
51146.0,STARLINK-3354,PAYLOAD,2023-10-20 04:38:10,15.0884585,0.0001412,53.2169,251.4312,93.7024,266.413,0.00025858,3.83e-05,0.0,0 STARLINK-3354,1 51146U 22005AU  23293.19318162  .00003830  00000-0  25858-3 0  9991,2 51146  53.2169 251.4312 0001412  93.7024 266.4130 15.08845850 98289,6917.863,95.437,540.704,538.751,0.0
51146.0,STARLINK-3354,PAYLOAD,2023-10-20 06:13:34,15.08845665,0.0001414,53.2169,251.1339,91.3957,268.7197,0.00039631,6.026e-05,0.0,0 STARLINK-3354,1 51146U 22005AU  23293.25942156  .00006026  00000-0  39631-3 0  9998,2 51146  53.2169 251.1339 0001414  91.3957 268.7197 15.08845665 97175,6917.863,95.437,540.706,538.75,0.0
51146.0,STARLINK-3354,PAYLOAD,2023-10-21 02:53:35,15.08825743,0.0001862,53.2171,247.2667,76.3576,283.7623,0.00065229,0.00010104,0.0,0 STARLINK-3354,1 51146U 22005AU  23294.12055536  .00010104  00000-0  65229-3 0  9996,2 51146  53.2171 247.2667 0001862  76.3576 283.7623 15.08825743 98420,6917.924,95.438,541.077,538.501,0.0
51146.0,STARLINK-3354,PAYLOAD,2023-10-21 14:01:17,15.08847492,0.0001458,53.2163,245.1858,87.2283,272.8876,0.00082867,0.00012928,0.0,0 STARLINK-3354,1 51146U 22005AU  23294.58423104  .00012928  00000-0  82867-3 0  9999,2 51146  53.2163 245.1858 0001458  87.2283 272.8876 15.08847492 97374,6917.857,95.437,540.731,538.714,0.0
